{
    "links": {
        "self": "http://www.neowsapp.com/rest/v1/neo/3766339?api_key=iIulBulltgU6a56xZRHN4H3l9WmuAYTsLGpBGhQ2"
    },
    "id": "3766339",
    "neo_reference_id": "3766339",
    "name": "(2017 AK4)",
    "designation": "2017 AK4",
    "nasa_jpl_url": "http://ssd.jpl.nasa.gov/sbdb.cgi?sstr=3766339",
    "absolute_magnitude_h": 21.4,
    "estimated_diameter": {
        "kilometers": {
            "estimated_diameter_min": 0.1394938229,
            "estimated_diameter_max": 0.3119176705
        },
        "meters": {
            "estimated_diameter_min": 139.4938229344,
            "estimated_diameter_max": 311.9176705226
        },
        "miles": {
            "estimated_diameter_min": 0.0866774163,
            "estimated_diameter_max": 0.1938165949
        },
        "feet": {
            "estimated_diameter_min": 457.6569140361,
            "estimated_diameter_max": 1023.3519701574
        }
    },
    "is_potentially_hazardous_asteroid": false,
    "close_approach_data": [
        {
            "close_approach_date": "2016-12-07",
            "close_approach_date_full": "2016-Dec-07 22:59",
            "epoch_date_close_approach": 1481151540000,
            "relative_velocity": {
                "kilometers_per_second": "19.2684838035",
                "kilometers_per_hour": "69366.5416925838",
                "miles_per_hour": "43101.6714200391"
            },
            "miss_distance": {
                "astronomical": "0.1934504686",
                "lunar": "75.2522322854",
                "kilometers": "28939778.053061882",
                "miles": "17982344.2297906916"
            },
            "orbiting_body": "Earth"
        },
        {
            "close_approach_date": "2194-11-13",
            "close_approach_date_full": "2194-Nov-13 21:05",
            "epoch_date_close_approach": 7096194300000,
            "relative_velocity": {
                "kilometers_per_second": "23.2531786431",
                "kilometers_per_hour": "83711.4431153069",
                "miles_per_hour": "52015.0353068417"
            },
            "miss_distance": {
                "astronomical": "0.3884092242",
                "lunar": "151.0911882138",
                "kilometers": "58105192.628672454",
                "miles": "36104892.4933457052"
            },
            "orbiting_body": "Earth"
        }
    ],
    "orbital_data": {
        "orbit_id": "7",
        "orbit_determination_date": "2020-09-22 06:43:44",
        "first_observation_date": "2017-01-03",
        "last_observation_date": "2017-02-16",
        "data_arc_in_days": 44,
        "observations_used": 33,
        "orbit_uncertainty": "7",
        "minimum_orbit_intersection": ".0767355",
        "jupiter_tisserand_invariant": "3.181",
        "epoch_osculation": "2459000.5",
        "eccentricity": ".5465415887467798",
        "semi_major_axis": "2.328494586549001",
        "inclination": "32.37976004908352",
        "ascending_node_longitude": "247.408003197033",
        "orbital_period": "1297.810476806123",
        "perihelion_distance": "1.055875455828234",
        "perihelion_argument": "191.2854263321005",
        "aphelion_distance": "3.601113717269769",
        "perihelion_time": "2459042.715205304919",
        "mean_anomaly": "348.2899127558507",
        "mean_motion": ".2773902711017948",
        "equinox": "J2000",
        "orbit_class": {
            "orbit_class_type": "AMO",
            "orbit_class_description": "Near-Earth asteroid orbits similar to that of 1221 Amor",
            "orbit_class_range": "1.017 AU < q (perihelion) < 1.3 AU"
        }
    },
    "is_sentry_object": false
}